[{"OBJECT_NAME":"PAKTES 1A","OBJECT_ID":"2018-056A","EPOCH":"2026-03-10T00:00:36.622368","MEAN_MOTION":14.98554284,"ECCENTRICITY":0.00218522,"INCLINATION":98.1121,"RA_OF_ASC_NODE":221.3801,"ARG_OF_PERICENTER":79.2607,"MEAN_ANOMALY":281.1073,"EPHEMERIS_TYPE":0,"CLASSIFICATION_TYPE":"U","NORAD_CAT_ID":43529,"ELEMENT_SET_NO":999,"REV_AT_EPOCH":41706,"BSTAR":0.00036888675,"MEAN_MOTION_DOT":4.376e-5,"MEAN_MOTION_DDOT":0},{"OBJECT_NAME":"STARLINK-6287","OBJECT_ID":"2023-061AG","EPOCH":"2026-03-09T08:35:57.849216","MEAN_MOTION":15.02534595,"ECCENTRICITY":0.00014249,"INCLINATION":43.0036,"RA_OF_ASC_NODE":186.3692,"ARG_OF_PERICENTER":267.5844,"MEAN_ANOMALY":92.4835,"EPHEMERIS_TYPE":0,"CLASSIFICATION_TYPE":"U","NORAD_CAT_ID":56404,"ELEMENT_SET_NO":999,"REV_AT_EPOCH":15685,"BSTAR":3.8842138e-5,"MEAN_MOTION_DOT":3.21e-6,"MEAN_MOTION_DDOT":0}]
